SARSAT 7 (NOAA 15)      
1 25338U 98030A   19042.96876821  .00000007  00000-0  21720-4 0  9997
2 25338  98.7574  64.3953 0009528 248.9753 111.0408 14.25894463 78933
METEOSAT-8 (MSG-1)      
1 27509U 02040B   19043.19976476  .00000140  00000-0  00000+0 0  9999
2 27509   5.8752  56.0740 0001551 296.6748 262.4704  1.00270303 60353
GPS BIIR-08             
1 27663U 03005A   19042.50000861 -.00000048  00000-0  00000+0 0  9990
2 27663  56.4016 321.2926 0104473  29.7880 149.3433  2.00552284117505
GPS BIIR-11             
1 28190U 04009A   19042.85623212 -.00000044  00000-0  00000-0 0  9997
2 28190  56.2457  22.0662 0091597  76.5299 153.4386  2.00570136109181
GPS BIIR-12             
1 28361U 04023A   19042.67057329  .00000072  00000-0  00000-0 0  9993
2 28361  54.0528 195.3735 0129636 228.9089 139.4219  2.00566782107243
GPS BIIR-13             
1 28474U 04045A   19042.39875781 -.00000023  00000-0  00000+0 0  9997
2 28474  54.6299  72.9110 0190645 258.3712 277.8719  2.00566412104614
SARSAT 10 (NOAA 18)     
1 28654U 05018A   19042.90376968  .00000059  00000-0  56870-4 0  9997
2 28654  99.1154  87.8601 0014559 170.8367 189.3072 14.12403484707524
GPS BIIR-14M            
1 28874U 05038A   19042.31679293 -.00000047  00000-0  00000+0 0  9992
2 28874  56.3750  19.4256 0132172 261.2888 323.1159  2.00561985 98013
METEOSAT-9 (MSG-2)      
1 28912U 05049B   19042.25817870  .00000024  00000-0  00000+0 0  9999
2 28912   3.4050  71.5024 0001445 328.7972 197.3499  1.00279992 48178
GOES 13                 
1 29155U 06018A   19042.90572749 -.00000281  00000-0  00000-0 0  9998
2 29155   0.3757 101.2168 0008183 315.0043 351.4157  1.00262907 16472
SARSAT 11 (METOP-A)     
1 29499U 06044A   19042.97410880 -.00000017  00000-0  11838-4 0  9994
2 29499  98.5940  99.6455 0000841 153.5145 198.4353 14.21541914638872
GPS BIIR-16M            
1 29601U 06052A   19042.06293308 -.00000047  00000-0  00000+0 0  9999
2 29601  56.3804 320.2260 0072313  58.2042 302.5368  2.00560759 89646
GPS BIIR-17M            
1 32260U 07047A   19042.37567886  .00000065  00000-0  00000+0 0  9997
2 32260  53.1761 191.1898 0110721  42.8567 317.9719  2.00567289 83028
GPS BIIR-18M            
1 32384U 07062A   19042.45871178 -.00000046  00000-0  00000+0 0  9992
2 32384  56.4558  20.0490 0004531  79.9785 117.6738  2.00576808 81769
SARSAT 12 (NOAA 19)     
1 33591U 09005A   19042.95052801  .00000057  00000-0  56055-4 0  9998
2 33591  99.1703  31.0707 0014287  17.8933 342.2738 14.12333766515751
GOES 14                 
1 35491U 09033A   19042.92618689 -.00000091  00000-0  00000-0 0  9993
2 35491   0.0159 131.3743 0009796 111.8129 127.6406  1.00271107 35222
GOES 15                 
1 36411U 10008A   19042.65292538  .00000057  00000-0  00000-0 0  9992
2 36411   0.0644 274.0352 0003383 347.3045 347.0663  1.00264458 32775
GLONASS-K 1             
1 37372U 11009A   19042.88323431  .00000001  00000-0  00000-0 0  9992
2 37372  65.6854  44.2430 0010075 240.2947 267.5764  2.13107535 61939
GPS BIIF-2              
1 37753U 11036A   19042.90984198 -.00000018  00000-0  00000-0 0  9990
2 37753  55.8272  76.7036 0082250  37.8798 270.5299  2.00565500 55472
GSAT0101 (GALILEO-PFM)  
1 37846U 11060A   19041.80880992 -.00000025  00000-0  00000+0 0  9992
2 37846  56.2874  54.8835 0004835 315.3230  44.6812  1.70475801 45504
GSAT0102 (GALILEO-FM2)  
1 37847U 11060B   19041.14408763 -.00000026  00000-0  00000+0 0  9993
2 37847  56.2881  54.9011 0006484 302.5444  55.5393  1.70475741 45482
LUCH 5A                 
1 37951U 11074B   19043.21403438 -.00000055  00000-0  00000+0 0  9990
2 37951   2.2473 134.6209 0003772 191.0677  59.0922  1.00273514 26299
METEOSAT-10 (MSG-3)     
1 38552U 12035B   19042.89571025  .00000063  00000-0  00000-0 0  9996
2 38552   0.9891   8.9686 0000205 325.3995 139.0966  1.00265959 23996
SARSAT 13 (METOP-B)     
1 38771U 12049A   19042.95353010 -.00000022  00000-0  10133-4 0  9991
2 38771  98.7221 103.9429 0000820  36.4493 323.3053 14.21480816332196
GPS BIIF-3              
1 38833U 12053A   19042.46673667  .00000063  00000-0  00000-0 0  9996
2 38833  53.8279 253.6208 0080371  32.5831 327.9542  2.00556719 45745
GSAT0103 (GALILEO-FM3)  
1 38857U 12055A   19042.43713932  .00000039  00000-0  00000+0 0  9993
2 38857  54.9236 175.3368 0002184 242.7961 117.1483  1.70473666 39424
GSAT0104 (GALILEO-FM4)  
1 38858U 12055B   19042.37137750  .00000039  00000-0  00000+0 0  9995
2 38858  54.9240 175.3374 0001027 240.0828 119.8735  1.70473631 39370
GPS BIIF-4              
1 39166U 13023A   19042.33019585 -.00000050  00000-0  00000+0 0  9999
2 39166  56.0624  16.2430 0065692  22.6989 337.5944  2.00568574 42064
INSAT-3D                
1 39216U 13038B   19042.94764076 -.00000154  00000-0  00000-0 0  9996
2 39216   0.1093 271.7440 0001197  57.6698 235.4830  1.00272054 20211
GPS BIIF-5              
1 39533U 14008A   19042.32661902  .00000054  00000-0  00000-0 0  9990
2 39533  53.9633 259.0076 0036850 190.2874 169.6862  2.00568621 35899
LUCH 5V                 
1 39727U 14023A   19042.92932377 -.00000266  00000-0  00000-0 0  9991
2 39727   1.4774 301.5992 0003062  53.0335 216.3401  1.00272412535629
GPS BIIF-6              
1 39741U 14026A   19042.11384956 -.00000021  00000-0  00000+0 0  9993
2 39741  55.8077  76.2604 0016646 289.8487  70.0367  2.00550021 34704
GPS BIIF-7              
1 40105U 14045A   19041.70108969  .00000070  00000-0  00000+0 0  9995
2 40105  54.5792 195.6474 0012376  99.6722 260.4397  2.00555847 33142
GSAT0201 (GALILEO 5)    
1 40128U 14050A   19042.28805124 -.00000068  00000-0  00000+0 0  9995
2 40128  50.5474  21.0247 1659075  83.4646 295.0977  1.85519443 30486
GSAT0202 (GALILEO 6)    
1 40129U 14050B   19043.09262319 -.00000066  00000-0  00000+0 0  9997
2 40129  50.5929  20.0114 1658597  84.3687 294.2554  1.85519966 30692
GPS BIIF-8              
1 40294U 14068A   19042.06911083  .00000001  00000-0  00000+0 0  9992
2 40294  55.1375 136.4718 0017635  30.6196 329.5123  2.00574006 31377
GLONASS-K 2             
1 40315U 14075A   19042.82664141  .00000026  00000-0  00000-0 0  9996
2 40315  64.1017 284.1050 0014814 208.0578   3.7240  2.13098467 32698
GPS BIIF-9              
1 40534U 15013A   19042.71338115 -.00000043  00000-0  00000-0 0  9999
2 40534  54.5945 315.0637 0036160   3.4967 356.5726  2.00549022 28020
GSAT0203 (GALILEO 7)    
1 40544U 15017A   19042.76111518 -.00000023  00000-0  00000+0 0  9992
2 40544  56.0797  55.0602 0005405 265.6082  94.3736  1.70475207 24139
GSAT0204 (GALILEO 8)    
1 40545U 15017B   19041.95674077 -.00000025  00000-0  00000-0 0  9990
2 40545  56.0855  55.0963 0003006 254.5141 105.4961  1.70475443 24128
GPS BIIF-10             
1 40730U 15033A   19042.36614420 -.00000051  00000-0  00000-0 0  9995
2 40730  55.5891  15.6385 0043373 337.0183  22.7927  2.00561482 26209
METEOSAT-11 (MSG-4)     
1 40732U 15034A   19042.89387830  .00000002  00000-0  00000-0 0  9993
2 40732   0.9650 227.6709 0001289  71.9490 164.2247  1.00262975 13148
GSAT0205 (GALILEO 9)    
1 40889U 15045A   19042.20033186 -.00000004  00000-0  00000+0 0  9997
2 40889  56.5459 295.6260 0004559  16.9110 343.1703  1.70474538 21278
GSAT0206 (GALILEO 10)   
1 40890U 15045B   19043.00662997 -.00000003  00000-0  00000+0 0  9995
2 40890  56.5443 295.6006 0002877  14.6739 345.3988  1.70474602 21310
GPS BIIF-11             
1 41019U 15062A   19042.41818310 -.00000001  00000-0  00000-0 0  9993
2 41019  55.1401 136.2692 0044076 204.8627 154.9536  2.00564576 24028
ELEKTRO-L 2             
1 41105U 15074A   19042.90897013 -.00000095  00000-0  00000-0 0  9996
2 41105   0.0883 155.1621 0001203 213.1735 176.6092  1.00272363 11626
GSAT0209 (GALILEO 12)   
1 41174U 15079A   19042.59117469  .00000039  00000-0  00000+0 0  9998
2 41174  54.9370 175.0260 0003522 312.1348  47.8024  1.70473812 19628
GSAT0208 (GALILEO 11)   
1 41175U 15079B   19042.22444791  .00000038  00000-0  00000+0 0  9999
2 41175  54.9355 175.0362 0002650 315.6901  44.2551  1.70473821 19625
GPS BIIF-12             
1 41328U 16007A   19042.01376725  .00000073  00000-0  00000+0 0  9998
2 41328  54.8252 195.9903 0026900 214.1192 145.6813  2.00553936 22071
GSAT0211 (GALILEO 14)   
1 41549U 16030A   19042.93328658 -.00000003  00000-0  00000+0 0  9996
2 41549  56.6857 295.4088 0003095 332.6065  27.4419  1.70474304 16925
GSAT0210 (GALILEO 13)   
1 41550U 16030B   19042.05324349 -.00000004  00000-0  00000-0 0  9996
2 41550  56.6854 295.4346 0001850 300.7333  59.3151  1.70474352 16922
INSAT-3DR               
1 41752U 16054A   19042.90853396 -.00000075  00000-0  00000-0 0  9997
2 41752   0.0905 100.6115 0013394 177.0332 265.0463  1.00272019  8918
GSAT0207 (GALILEO 15)   
1 41859U 16069A   19041.71126301  .00000037  00000-0  00000-0 0  9995
2 41859  54.5953 175.5364 0003103 295.2907  64.6415  1.70473791 13810
GSAT0212 (GALILEO 16)   
1 41860U 16069B   19042.73785656  .00000039  00000-0  00000-0 0  9996
2 41860  54.5929 175.5079 0002467 327.7710  32.1807  1.70473745 13929
GSAT0213 (GALILEO 17)   
1 41861U 16069C   19042.51743133  .00000039  00000-0  00000-0 0  9997
2 41861  54.5953 175.5168 0002250 259.2605 100.6807  1.70473851 13927
GSAT0214 (GALILEO 18)   
1 41862U 16069D   19042.66432074  .00000039  00000-0  00000+0 0  9992
2 41862  54.5934 175.5090 0001518 266.5770  93.3724  1.70473768 13913
GOES 16                 
1 41866U 16071A   19042.87861201 -.00000246  00000-0  00000-0 0  9992
2 41866   0.0430 250.7942 0000531  89.1471  42.7851  1.00271148  8214
GSAT-17                 
1 42815U 17040B   19042.92542750 -.00000256  00000-0  00000-0 0  9996
2 42815   0.0762 273.2582 0006205   3.4902 291.5427  1.00272883  5924
GSAT0215 (GALILEO 19)   
1 43055U 17079A   19041.39199157 -.00000004  00000-0  00000-0 0  9995
2 43055  56.6610 295.3026 0001138 305.3158  54.7421  1.70473590  7239
GSAT0216 (GALILEO 20)   
1 43056U 17079B   19042.27167015 -.00000003  00000-0  00000-0 0  9991
2 43056  56.6607 295.2781 0002962 282.0244  78.0086  1.70473643  7264
GSAT0217 (GALILEO 21)   
1 43057U 17079C   19043.07825008 -.00000002  00000-0  00000+0 0  9992
2 43057  56.6582 295.2572 0002771 301.4093  58.6282  1.70473578  7260
GSAT0218 (GALILEO 22)   
1 43058U 17079D   19036.84573076 -.00000012  00000-0  00000+0 0  9996
2 43058  56.6633 295.4252 0003525 275.0782  84.9557  1.70473747  7168
GOES 17                 
1 43226U 18022A   19042.57930021  .00000100  00000-0  00000-0 0  9994
2 43226   0.0207  78.1277 0003188 289.2467 205.2869  1.00270474  3514
GSAT0221 (GALILEO 25)   
1 43564U 18060A   19042.02833713 -.00000024  00000-0  00000+0 0  9996
2 43564  56.4712  54.5777 0006420 276.8196  83.1500  1.70476202  3431
GSAT0222 (GALILEO 26)   
1 43565U 18060B   19041.07510467 -.00000026  00000-0  00000+0 0  9991
2 43565  56.4727  54.6027 0006266 282.5932  77.3798  1.70476301  3453
GSAT0219 (GALILEO 23)   
1 43566U 18060C   19042.46811469 -.00000023  00000-0  00000+0 0  9999
2 43566  56.4741  54.5657 0005903 279.8826  80.0935  1.70476045  3455
GSAT0220 (GALILEO 24)   
1 43567U 18060D   19042.10139696 -.00000024  00000-0  00000-0 0  9998
2 43567  56.4735  54.5772 0005981 280.9963  78.9790  1.70476133  3439
